start=new Date('2023-05-15T00:00:00.000Z').valueOf();
sats=[{"REV_AT_EPOCH":"776","DECAY_DATE":null,"CENTER_NAME":"EARTH","MEAN_MOTION_DDOT":"0.0000000000000","APOAPSIS":"421.485","INCLINATION":"43.0018","RA_OF_ASC_NODE":"348.8281","MEAN_ELEMENT_THEORY":"SGP4","TLE_LINE2":"2 56119  43.0018 348.8281 0002282 256.9882 103.0723 15.48903911  7765","FILE":"3907948","REF_FRAME":"TEME","MEAN_ANOMALY":"103.0723","SITE":"AFETR","TIME_SYSTEM":"UTC","LAUNCH_DATE":"2023-03-29","ARG_OF_PERICENTER":"256.9882","PERIOD":"92.969","EPOCH":"2023-05-14T22:37:46.560000","BSTAR":"0.00004434900000","ELEMENT_SET_NO":"999","COUNTRY_CODE":"US","EPHEMERIS_TYPE":"0","OBJECT_NAME":"STARLINK-6091","GP_ID":"231829450","CLASSIFICATION_TYPE":"U","RCS_SIZE":"LARGE","OBJECT_TYPE":"PAYLOAD","ECCENTRICITY":"0.00022820","OBJECT_ID":"2023-046AC","TLE_LINE1":"1 56119U 23046AC  23134.94290000  .00002118  00000-0  44349-4 0  9994","PERIAPSIS":"418.382","MEAN_MOTION":"15.48903911","NORAD_CAT_ID":"56119","SEMIMAJOR_AXIS":"6798.068","MEAN_MOTION_DOT":"0.00002118"},{"PERIOD":"92.969","EPOCH":"2023-05-14T21:05:47.760864","SITE":"AFETR","LAUNCH_DATE":"2023-03-29","TIME_SYSTEM":"UTC","ARG_OF_PERICENTER":"261.3252","TLE_LINE2":"2 56120  43.0017 349.2115 0001690 261.3252  98.7416 15.48909438  7219","FILE":"3908005","REF_FRAME":"TEME","MEAN_ANOMALY":"98.7416","INCLINATION":"43.0017","RA_OF_ASC_NODE":"349.2115","MEAN_ELEMENT_THEORY":"SGP4","DECAY_DATE":null,"CENTER_NAME":"EARTH","MEAN_MOTION_DDOT":"0.0000000000000","APOAPSIS":"421.066","REV_AT_EPOCH":"721","NORAD_CAT_ID":"56120","SEMIMAJOR_AXIS":"6798.052","MEAN_MOTION_DOT":"0.00000526","TLE_LINE1":"1 56120U 23046AD  23134.87902501  .00000526  00000-0  15564-4 0  9992","PERIAPSIS":"418.768","MEAN_MOTION":"15.48909438","OBJECT_TYPE":"PAYLOAD","ECCENTRICITY":"0.00016900","OBJECT_ID":"2023-046AD","OBJECT_NAME":"STARLINK-6079","CLASSIFICATION_TYPE":"U","GP_ID":"231856114","RCS_SIZE":"LARGE","COUNTRY_CODE":"US","EPHEMERIS_TYPE":"0","ELEMENT_SET_NO":"999","BSTAR":"0.00001556400000"},{"LAUNCH_DATE":"2023-03-29","TIME_SYSTEM":"UTC","SITE":"AFETR","ARG_OF_PERICENTER":"266.5837","PERIOD":"92.969","EPOCH":"2023-05-14T21:05:08.763360","REV_AT_EPOCH":"721","CENTER_NAME":"EARTH","DECAY_DATE":null,"APOAPSIS":"420.866","MEAN_MOTION_DDOT":"0.0000000000000","RA_OF_ASC_NODE":"349.2101","INCLINATION":"43.0023","MEAN_ELEMENT_THEORY":"SGP4","FILE":"3908005","TLE_LINE2":"2 56121  43.0023 349.2101 0001395 266.5837  93.4863 15.48909116  7211","REF_FRAME":"TEME","MEAN_ANOMALY":"93.4863","OBJECT_NAME":"STARLINK-6092","RCS_SIZE":"LARGE","GP_ID":"231855864","CLASSIFICATION_TYPE":"U","OBJECT_TYPE":"PAYLOAD","OBJECT_ID":"2023-046AE","ECCENTRICITY":"0.00013950","PERIAPSIS":"418.970","TLE_LINE1":"1 56121U 23046AE  23134.87857365  .00001238  00000-0  28443-4 0  9991","MEAN_MOTION":"15.48909116","SEMIMAJOR_AXIS":"6798.053","NORAD_CAT_ID":"56121","MEAN_MOTION_DOT":"0.00001238","BSTAR":"0.00002844300000","ELEMENT_SET_NO":"999","COUNTRY_CODE":"US","EPHEMERIS_TYPE":"0"},{"PERIOD":"94.924","EPOCH":"2023-05-14T22:00:00.999936","SITE":"AFETR","TIME_SYSTEM":"UTC","LAUNCH_DATE":"2023-03-29","ARG_OF_PERICENTER":"276.4805","DECAY_DATE":null,"CENTER_NAME":"EARTH","MEAN_MOTION_DDOT":"0.0000000000000","APOAPSIS":"515.739","REV_AT_EPOCH":"130","FILE":"3908005","TLE_LINE2":"2 56122  43.0021 354.4516 0001213 276.4805 216.6770 15.17004057  1308","MEAN_ANOMALY":"216.6770","REF_FRAME":"TEME","INCLINATION":"43.0021","RA_OF_ASC_NODE":"354.4516","MEAN_ELEMENT_THEORY":"SGP4","OBJECT_TYPE":"PAYLOAD","ECCENTRICITY":"0.00012130","OBJECT_ID":"2023-046AF","OBJECT_NAME":"STARLINK-6094","GP_ID":"231857116","CLASSIFICATION_TYPE":"U","RCS_SIZE":"LARGE","NORAD_CAT_ID":"56122","SEMIMAJOR_AXIS":"6893.038","MEAN_MOTION_DOT":"-0.00895825","TLE_LINE1":"1 56122U 23046AF  23134.91667824 -.00895825  00000-0 -47974-1 0  9998","PERIAPSIS":"514.067","MEAN_MOTION":"15.17004057","ELEMENT_SET_NO":"999","BSTAR":"-0.04797400000000","COUNTRY_CODE":"US","EPHEMERIS_TYPE":"0"},{"APOAPSIS":"420.872","MEAN_MOTION_DDOT":"0.0000000000000","CENTER_NAME":"EARTH","DECAY_DATE":null,"REV_AT_EPOCH":"721","REF_FRAME":"TEME","MEAN_ANOMALY":"105.0585","FILE":"3908005","TLE_LINE2":"2 56123  43.0027 349.2073 0001403 255.0119 105.0585 15.48908967  7215","MEAN_ELEMENT_THEORY":"SGP4","RA_OF_ASC_NODE":"349.2073","INCLINATION":"43.0027","EPOCH":"2023-05-14T21:04:16.614912","PERIOD":"92.969","ARG_OF_PERICENTER":"255.0119","TIME_SYSTEM":"UTC","LAUNCH_DATE":"2023-03-29","SITE":"AFETR","ELEMENT_SET_NO":"999","BSTAR":"0.00002751800000","EPHEMERIS_TYPE":"0","COUNTRY_CODE":"US","OBJECT_ID":"2023-046AH","ECCENTRICITY":"0.00014030","OBJECT_TYPE":"PAYLOAD","RCS_SIZE":"LARGE","GP_ID":"231856866","CLASSIFICATION_TYPE":"U","OBJECT_NAME":"STARLINK-6115","MEAN_MOTION_DOT":"0.00001187","SEMIMAJOR_AXIS":"6798.054","NORAD_CAT_ID":"56123","MEAN_MOTION":"15.48908967","PERIAPSIS":"418.965","TLE_LINE1":"1 56123U 23046AH  23134.87797008  .00001187  00000-0  27518-4 0  9995"},{"SITE":"AFETR","TIME_SYSTEM":"UTC","LAUNCH_DATE":"2023-03-29","ARG_OF_PERICENTER":"261.7808","PERIOD":"92.968","EPOCH":"2023-05-14T21:05:21.603264","INCLINATION":"43.0021","RA_OF_ASC_NODE":"349.2113","MEAN_ELEMENT_THEORY":"SGP4","FILE":"3908005","TLE_LINE2":"2 56124  43.0021 349.2113 0001430 261.7808  98.2889 15.48911807  7211","REF_FRAME":"TEME","MEAN_ANOMALY":"98.2889","REV_AT_EPOCH":"721","DECAY_DATE":null,"CENTER_NAME":"EARTH","MEAN_MOTION_DDOT":"0.0000000000000","APOAPSIS":"420.882","TLE_LINE1":"1 56124U 23046AJ  23134.87872226  .00001081  00000-0  25591-4 0  9994","PERIAPSIS":"418.938","MEAN_MOTION":"15.48911807","NORAD_CAT_ID":"56124","SEMIMAJOR_AXIS":"6798.045","MEAN_MOTION_DOT":"0.00001081","OBJECT_NAME":"STARLINK-6126","CLASSIFICATION_TYPE":"U","GP_ID":"231855614","RCS_SIZE":"LARGE","OBJECT_TYPE":"PAYLOAD","ECCENTRICITY":"0.00014300","OBJECT_ID":"2023-046AJ","COUNTRY_CODE":"US","EPHEMERIS_TYPE":"0","BSTAR":"0.00002559100000","ELEMENT_SET_NO":"999"},{"ELEMENT_SET_NO":"999","BSTAR":"0.00003554000000","COUNTRY_CODE":"US","EPHEMERIS_TYPE":"0","OBJECT_TYPE":"PAYLOAD","ECCENTRICITY":"0.00017770","OBJECT_ID":"2023-046AK","OBJECT_NAME":"STARLINK-6119","GP_ID":"231856365","CLASSIFICATION_TYPE":"U","RCS_SIZE":"LARGE","NORAD_CAT_ID":"56125","SEMIMAJOR_AXIS":"6798.066","MEAN_MOTION_DOT":"0.00001631","TLE_LINE1":"1 56125U 23046AK  23134.87812017  .00001631  00000-0  35540-4 0  9993","PERIAPSIS":"418.723","MEAN_MOTION":"15.48904710","DECAY_DATE":null,"CENTER_NAME":"EARTH","MEAN_MOTION_DDOT":"0.0000000000000","APOAPSIS":"421.139","REV_AT_EPOCH":"721","TLE_LINE2":"2 56125  43.0025 349.2061 0001777 257.7627 102.3033 15.48904710  7219","FILE":"3908005","REF_FRAME":"TEME","MEAN_ANOMALY":"102.3033","INCLINATION":"43.0025","RA_OF_ASC_NODE":"349.2061","MEAN_ELEMENT_THEORY":"SGP4","PERIOD":"92.969","EPOCH":"2023-05-14T21:04:29.582688","SITE":"AFETR","LAUNCH_DATE":"2023-03-29","TIME_SYSTEM":"UTC","ARG_OF_PERICENTER":"257.7627"},{"REV_AT_EPOCH":"721","APOAPSIS":"420.928","MEAN_MOTION_DDOT":"0.0000000000000","CENTER_NAME":"EARTH","DECAY_DATE":null,"MEAN_ELEMENT_THEORY":"SGP4","RA_OF_ASC_NODE":"349.2040","INCLINATION":"43.0021","REF_FRAME":"TEME","MEAN_ANOMALY":"97.3750","TLE_LINE2":"2 56126  43.0021 349.2040 0001498 262.6939  97.3750 15.48911866  7213","FILE":"3908005","ARG_OF_PERICENTER":"262.6939","LAUNCH_DATE":"2023-03-29","TIME_SYSTEM":"UTC","SITE":"AFETR","EPOCH":"2023-05-14T21:04:03.374112","PERIOD":"92.968","BSTAR":"0.00002085800000","ELEMENT_SET_NO":"999","EPHEMERIS_TYPE":"0","COUNTRY_CODE":"US","RCS_SIZE":"LARGE","GP_ID":"231856616","CLASSIFICATION_TYPE":"U","OBJECT_NAME":"STARLINK-6124","OBJECT_ID":"2023-046AL","ECCENTRICITY":"0.00014980","OBJECT_TYPE":"PAYLOAD","MEAN_MOTION":"15.48911866","PERIAPSIS":"418.892","TLE_LINE1":"1 56126U 23046AL  23134.87781683  .00000819  00000-0  20858-4 0  9991","MEAN_MOTION_DOT":"0.00000819","SEMIMAJOR_AXIS":"6798.045","NORAD_CAT_ID":"56126"},{"REF_FRAME":"TEME","MEAN_ANOMALY":"105.8604","TLE_LINE2":"2 56127  42.9998 349.2004 0001210 254.2122 105.8604 15.48912194  7216","FILE":"3908005","MEAN_ELEMENT_THEORY":"SGP4","RA_OF_ASC_NODE":"349.2004","INCLINATION":"42.9998","APOAPSIS":"420.732","MEAN_MOTION_DDOT":"0.0000000000000","CENTER_NAME":"EARTH","DECAY_DATE":null,"REV_AT_EPOCH":"721","EPOCH":"2023-05-14T21:03:24.136416","PERIOD":"92.968","ARG_OF_PERICENTER":"254.2122","LAUNCH_DATE":"2023-03-29","TIME_SYSTEM":"UTC","SITE":"AFETR","EPHEMERIS_TYPE":"0","COUNTRY_CODE":"US","ELEMENT_SET_NO":"999","BSTAR":"-0.00000205620000","MEAN_MOTION_DOT":"-0.00000448","SEMIMAJOR_AXIS":"6798.044","NORAD_CAT_ID":"56127","MEAN_MOTION":"15.48912194","PERIAPSIS":"419.087","TLE_LINE1":"1 56127U 23046AM  23134.87736269 -.00000448  00000-0 -20562-5 0  9995","OBJECT_ID":"2023-046AM","ECCENTRICITY":"0.00012100","OBJECT_TYPE":"PAYLOAD","RCS_SIZE":"LARGE","CLASSIFICATION_TYPE":"U","GP_ID":"231857367","OBJECT_NAME":"STARLINK-6104"},{"TIME_SYSTEM":"UTC","LAUNCH_DATE":"2023-03-29","SITE":"AFETR","ARG_OF_PERICENTER":"270.3744","PERIOD":"92.969","EPOCH":"2023-05-14T21:04:42.585024","RA_OF_ASC_NODE":"349.2081","INCLINATION":"43.0012","MEAN_ELEMENT_THEORY":"SGP4","TLE_LINE2":"2 56128  43.0012 349.2081 0001263 270.3744  89.6971 15.48909328  7219","FILE":"3908005","MEAN_ANOMALY":"89.6971","REF_FRAME":"TEME","REV_AT_EPOCH":"721","CENTER_NAME":"EARTH","DECAY_DATE":null,"APOAPSIS":"420.776","MEAN_MOTION_DDOT":"0.0000000000000","PERIAPSIS":"419.059","TLE_LINE1":"1 56128U 23046AN  23134.87827066  .00001522  00000-0  33561-4 0  9996","MEAN_MOTION":"15.48909328","SEMIMAJOR_AXIS":"6798.052","NORAD_CAT_ID":"56128","MEAN_MOTION_DOT":"0.00001522","OBJECT_NAME":"STARLINK-6122","RCS_SIZE":"LARGE","GP_ID":"231856115","CLASSIFICATION_TYPE":"U","OBJECT_TYPE":"PAYLOAD","OBJECT_ID":"2023-046AN","ECCENTRICITY":"0.00012630","COUNTRY_CODE":"US","EPHEMERIS_TYPE":"0","BSTAR":"0.00003356100000","ELEMENT_SET_NO":"999"}];
